STARLINK-1554
1 16055C 20055AE  21326.13039151  .00000455  00000-0  30505-4 0  3264
2 16055  53.0541 318.1641 0001844  59.3965  60.3617 15.06394811    10
